[{"OBJECT_NAME":"TITAN 3C TRANSTAGE DEB","OBJECT_ID":"1969-013S","EPOCH":"2026-04-04T05:50:11.992704","MEAN_MOTION":0.97800549,"ECCENTRICITY":0.0217715,"INCLINATION":1.3412,"RA_OF_ASC_NODE":60.8806,"ARG_OF_PERICENTER":46.6314,"MEAN_ANOMALY":315.6308,"EPHEMERIS_TYPE":0,"CLASSIFICATION_TYPE":"U","NORAD_CAT_ID":43514,"ELEMENT_SET_NO":999,"REV_AT_EPOCH":87763,"BSTAR":0,"MEAN_MOTION_DOT":-3.0e-6,"MEAN_MOTION_DDOT":0},{"OBJECT_NAME":"BEIDOU-2 IGSO-7","OBJECT_ID":"2018-057A","EPOCH":"2026-03-27T15:08:38.812992","MEAN_MOTION":1.00275701,"ECCENTRICITY":0.01017729,"INCLINATION":55.1838,"RA_OF_ASC_NODE":163.7722,"ARG_OF_PERICENTER":237.2605,"MEAN_ANOMALY":124.1194,"EPHEMERIS_TYPE":0,"CLASSIFICATION_TYPE":"U","NORAD_CAT_ID":43539,"ELEMENT_SET_NO":999,"REV_AT_EPOCH":2831,"BSTAR":0,"MEAN_MOTION_DOT":-1.68e-6,"MEAN_MOTION_DDOT":0},{"OBJECT_NAME":"TELSTAR 19V","OBJECT_ID":"2018-059A","EPOCH":"2026-04-04T21:02:34.357056","MEAN_MOTION":1.00271306,"ECCENTRICITY":0.00015998,"INCLINATION":0.0187,"RA_OF_ASC_NODE":182.5022,"ARG_OF_PERICENTER":256.9771,"MEAN_ANOMALY":6.3413,"EPHEMERIS_TYPE":0,"CLASSIFICATION_TYPE":"U","NORAD_CAT_ID":43562,"ELEMENT_SET_NO":999,"REV_AT_EPOCH":2840,"BSTAR":0,"MEAN_MOTION_DOT":-2.79e-6,"MEAN_MOTION_DDOT":0},{"OBJECT_NAME":"TELKOM 4 (MERAH PUTIH)","OBJECT_ID":"2018-064A","EPOCH":"2026-04-04T22:18:30.292128","MEAN_MOTION":1.00271665,"ECCENTRICITY":0.00029289,"INCLINATION":0.0181,"RA_OF_ASC_NODE":128.7658,"ARG_OF_PERICENTER":291.6534,"MEAN_ANOMALY":215.4354,"EPHEMERIS_TYPE":0,"CLASSIFICATION_TYPE":"U","NORAD_CAT_ID":43587,"ELEMENT_SET_NO":999,"REV_AT_EPOCH":2814,"BSTAR":0,"MEAN_MOTION_DOT":-3.43e-6,"MEAN_MOTION_DDOT":0},{"OBJECT_NAME":"TELSTAR 18V","OBJECT_ID":"2018-069A","EPOCH":"2026-04-04T21:59:58.037280","MEAN_MOTION":1.00272146,"ECCENTRICITY":0.00021937,"INCLINATION":0.013,"RA_OF_ASC_NODE":244.5537,"ARG_OF_PERICENTER":131.1994,"MEAN_ANOMALY":285.451,"EPHEMERIS_TYPE":0,"CLASSIFICATION_TYPE":"U","NORAD_CAT_ID":43611,"ELEMENT_SET_NO":999,"REV_AT_EPOCH":2790,"BSTAR":0,"MEAN_MOTION_DOT":-2.93e-6,"MEAN_MOTION_DDOT":0},{"OBJECT_NAME":"AZERSPACE 2 (IS-38)","OBJECT_ID":"2018-074A","EPOCH":"2026-04-04T20:26:38.677056","MEAN_MOTION":1.00270205,"ECCENTRICITY":0.00014762,"INCLINATION":0.0159,"RA_OF_ASC_NODE":234.177,"ARG_OF_PERICENTER":138.7902,"MEAN_ANOMALY":171.9699,"EPHEMERIS_TYPE":0,"CLASSIFICATION_TYPE":"U","NORAD_CAT_ID":43632,"ELEMENT_SET_NO":999,"REV_AT_EPOCH":2771,"BSTAR":0,"MEAN_MOTION_DOT":1.37e-6,"MEAN_MOTION_DDOT":0},{"OBJECT_NAME":"HORIZONS-3E","OBJECT_ID":"2018-074B","EPOCH":"2026-04-04T20:26:09.676032","MEAN_MOTION":1.00272146,"ECCENTRICITY":7.77e-5,"INCLINATION":0.0021,"RA_OF_ASC_NODE":153.712,"ARG_OF_PERICENTER":169.9498,"MEAN_ANOMALY":345.0402,"EPHEMERIS_TYPE":0,"CLASSIFICATION_TYPE":"U","NORAD_CAT_ID":43633,"ELEMENT_SET_NO":999,"REV_AT_EPOCH":2760,"BSTAR":0,"MEAN_MOTION_DOT":-3.0e-7,"MEAN_MOTION_DDOT":0},{"OBJECT_NAME":"FENGYUN 2H DEB","OBJECT_ID":"2018-050D","EPOCH":"2026-04-04T12:30:07.192512","MEAN_MOTION":1.0029981,"ECCENTRICITY":0.00737615,"INCLINATION":4.7107,"RA_OF_ASC_NODE":77.1131,"ARG_OF_PERICENTER":272.8547,"MEAN_ANOMALY":86.4494,"EPHEMERIS_TYPE":0,"CLASSIFICATION_TYPE":"U","NORAD_CAT_ID":43645,"ELEMENT_SET_NO":999,"REV_AT_EPOCH":2818,"BSTAR":0,"MEAN_MOTION_DOT":7.5e-7,"MEAN_MOTION_DDOT":0},{"OBJECT_NAME":"FENGYUN 2G DEB","OBJECT_ID":"2014-090D","EPOCH":"2026-04-04T10:28:02.455392","MEAN_MOTION":1.00213552,"ECCENTRICITY":0.02268916,"INCLINATION":7.3559,"RA_OF_ASC_NODE":69.1571,"ARG_OF_PERICENTER":287.9068,"MEAN_ANOMALY":69.6723,"EPHEMERIS_TYPE":0,"CLASSIFICATION_TYPE":"U","NORAD_CAT_ID":43646,"ELEMENT_SET_NO":999,"REV_AT_EPOCH":4096,"BSTAR":0,"MEAN_MOTION_DOT":-1.62e-6,"MEAN_MOTION_DDOT":0},{"OBJECT_NAME":"AEHF-4 (USA 288)","OBJECT_ID":"2018-079A","EPOCH":"2026-04-04T21:01:34.453344","MEAN_MOTION":1.00274993,"ECCENTRICITY":0.00638114,"INCLINATION":1.4225,"RA_OF_ASC_NODE":357.5139,"ARG_OF_PERICENTER":359.0636,"MEAN_ANOMALY":84.4586,"EPHEMERIS_TYPE":0,"CLASSIFICATION_TYPE":"U","NORAD_CAT_ID":43651,"ELEMENT_SET_NO":999,"REV_AT_EPOCH":2756,"BSTAR":0,"MEAN_MOTION_DOT":-2.75e-6,"MEAN_MOTION_DDOT":0},{"OBJECT_NAME":"BEIDOU-3 G1","OBJECT_ID":"2018-085A","EPOCH":"2026-04-01T20:42:38.441952","MEAN_MOTION":1.00268589,"ECCENTRICITY":0.00020589,"INCLINATION":2.882,"RA_OF_ASC_NODE":99.4564,"ARG_OF_PERICENTER":12.9832,"MEAN_ANOMALY":168.3736,"EPHEMERIS_TYPE":0,"CLASSIFICATION_TYPE":"U","NORAD_CAT_ID":43683,"ELEMENT_SET_NO":999,"REV_AT_EPOCH":2729,"BSTAR":0,"MEAN_MOTION_DOT":-2.84e-6,"MEAN_MOTION_DDOT":0},{"OBJECT_NAME":"GSAT-29","OBJECT_ID":"2018-089A","EPOCH":"2026-04-04T21:36:15.310080","MEAN_MOTION":1.0027385,"ECCENTRICITY":0.00024051,"INCLINATION":0.0414,"RA_OF_ASC_NODE":79.3954,"ARG_OF_PERICENTER":305.1448,"MEAN_ANOMALY":187.7662,"EPHEMERIS_TYPE":0,"CLASSIFICATION_TYPE":"U","NORAD_CAT_ID":43698,"ELEMENT_SET_NO":999,"REV_AT_EPOCH":2705,"BSTAR":0,"MEAN_MOTION_DOT":8.5e-7,"MEAN_MOTION_DDOT":0},{"OBJECT_NAME":"ES'HAIL 2","OBJECT_ID":"2018-090A","EPOCH":"2026-04-04T21:27:54.426816","MEAN_MOTION":1.00268762,"ECCENTRICITY":0.00012677,"INCLINATION":0.0199,"RA_OF_ASC_NODE":214.2386,"ARG_OF_PERICENTER":178.9796,"MEAN_ANOMALY":147.7929,"EPHEMERIS_TYPE":0,"CLASSIFICATION_TYPE":"U","NORAD_CAT_ID":43700,"ELEMENT_SET_NO":999,"REV_AT_EPOCH":2694,"BSTAR":0,"MEAN_MOTION_DOT":0,"MEAN_MOTION_DDOT":0},{"OBJECT_NAME":"GEO-KOMPSAT-2A","OBJECT_ID":"2018-100A","EPOCH":"2026-04-04T21:57:13.300128","MEAN_MOTION":1.00273348,"ECCENTRICITY":0.00019571,"INCLINATION":0.0529,"RA_OF_ASC_NODE":37.8886,"ARG_OF_PERICENTER":23.09,"MEAN_ANOMALY":229.8063,"EPHEMERIS_TYPE":0,"CLASSIFICATION_TYPE":"U","NORAD_CAT_ID":43823,"ELEMENT_SET_NO":999,"REV_AT_EPOCH":2689,"BSTAR":0,"MEAN_MOTION_DOT":-3.43e-6,"MEAN_MOTION_DDOT":0},{"OBJECT_NAME":"GSAT-11","OBJECT_ID":"2018-100B","EPOCH":"2026-04-04T21:57:09.683424","MEAN_MOTION":1.00272061,"ECCENTRICITY":0.00065317,"INCLINATION":0.0725,"RA_OF_ASC_NODE":261.2995,"ARG_OF_PERICENTER":163.4409,"MEAN_ANOMALY":171.7509,"EPHEMERIS_TYPE":0,"CLASSIFICATION_TYPE":"U","NORAD_CAT_ID":43824,"ELEMENT_SET_NO":999,"REV_AT_EPOCH":2674,"BSTAR":0,"MEAN_MOTION_DOT":-7.6e-7,"MEAN_MOTION_DDOT":0},{"OBJECT_NAME":"GSAT-7A","OBJECT_ID":"2018-105A","EPOCH":"2026-04-04T22:37:14.261952","MEAN_MOTION":1.00272675,"ECCENTRICITY":0.00023497,"INCLINATION":0.0269,"RA_OF_ASC_NODE":299.3392,"ARG_OF_PERICENTER":85.3401,"MEAN_ANOMALY":210.6705,"EPHEMERIS_TYPE":0,"CLASSIFICATION_TYPE":"U","NORAD_CAT_ID":43864,"ELEMENT_SET_NO":999,"REV_AT_EPOCH":2671,"BSTAR":0,"MEAN_MOTION_DOT":2.7e-7,"MEAN_MOTION_DDOT":0},{"OBJECT_NAME":"COSMOS 2533","OBJECT_ID":"2018-107A","EPOCH":"2026-04-04T04:33:49.237344","MEAN_MOTION":1.00271339,"ECCENTRICITY":4.479e-5,"INCLINATION":0.0329,"RA_OF_ASC_NODE":112.4058,"ARG_OF_PERICENTER":16.7453,"MEAN_ANOMALY":201.8351,"EPHEMERIS_TYPE":0,"CLASSIFICATION_TYPE":"U","NORAD_CAT_ID":43867,"ELEMENT_SET_NO":999,"REV_AT_EPOCH":2670,"BSTAR":0,"MEAN_MOTION_DOT":-3.9e-7,"MEAN_MOTION_DDOT":0}]
