TITAN 3C TRANSTAGE DEB  
1 43514U 69013S   26094.24319436 -.00000300  00000+0  00000+0 0  9991
2 43514   1.3412  60.8806 0217715  46.6314 315.6308  0.97800549877634
BEIDOU-2 IGSO-7         
1 43539U 18057A   26086.63100478 -.00000168  00000+0  00000+0 0  9990
2 43539  55.1838 163.7722 0101772 237.2605 124.1194  1.00275701 28316
TELSTAR 19V             
1 43562U 18059A   26094.87678654 -.00000279  00000+0  00000+0 0  9992
2 43562   0.0187 182.5022 0001599 256.9771   6.3413  1.00271306 28400
TELKOM 4 (MERAH PUTIH)  
1 43587U 18064A   26094.92951727 -.00000343  00000+0  00000+0 0  9998
2 43587   0.0181 128.7658 0002928 291.6534 215.4354  1.00271665 28144
TELSTAR 18V             
1 43611U 18069A   26094.91664395 -.00000293  00000+0  00000+0 0  9996
2 43611   0.0130 244.5537 0002193 131.1994 285.4510  1.00272146 27900
AZERSPACE 2 (IS-38)     
1 43632U 18074A   26094.85183654  .00000137  00000+0  00000+0 0  9998
2 43632   0.0159 234.1770 0001476 138.7902 171.9699  1.00270205 27713
HORIZONS-3E             
1 43633U 18074B   26094.85150088 -.00000030  00000+0  00000+0 0  9997
2 43633   0.0021 153.7120 0000777 169.9498 345.0402  1.00272146 27606
FENGYUN 2H DEB          
1 43645U 18050D   26094.52091658  .00000075  00000+0  00000+0 0  9993
2 43645   4.7107  77.1131 0073761 272.8547  86.4494  1.00299810 28186
FENGYUN 2G DEB          
1 43646U 14090D   26094.43613953 -.00000162  00000+0  00000+0 0  9990
2 43646   7.3559  69.1571 0226891 287.9068  69.6723  1.00213552 40962
AEHF-4 (USA 288)        
1 43651U 18079A   26094.87609321 -.00000275  00000+0  00000+0 0  9994
2 43651   1.4225 357.5139 0063811 359.0636  84.4586  1.00274993 27569
BEIDOU-3 G1             
1 43683U 18085A   26091.86294493 -.00000284  00000+0  00000+0 0  9992
2 43683   2.8820  99.4564 0002058  12.9832 168.3736  1.00268589 27296
GSAT-29                 
1 43698U 18089A   26094.90017720  .00000085  00000+0  00000+0 0  9994
2 43698   0.0414  79.3954 0002405 305.1448 187.7662  1.00273850 27051
ES'HAIL 2               
1 43700U 18090A   26094.89437994  .00000000  00000+0  00000+0 0  9994
2 43700   0.0199 214.2386 0001267 178.9796 147.7929  1.00268762 26946
GEO-KOMPSAT-2A          
1 43823U 18100A   26094.91473727 -.00000343  00000+0  00000+0 0  9990
2 43823   0.0529  37.8886 0001957  23.0900 229.8063  1.00273348 26897
GSAT-11                 
1 43824U 18100B   26094.91469541 -.00000076  00000+0  00000+0 0  9993
2 43824   0.0725 261.2995 0006531 163.4409 171.7509  1.00272061 26741
GSAT-7A                 
1 43864U 18105A   26094.94252618  .00000027  00000+0  00000+0 0  9995
2 43864   0.0269 299.3392 0002349  85.3401 210.6705  1.00272675 26717
COSMOS 2533             
1 43867U 18107A   26094.19015321 -.00000039  00000+0  00000+0 0  9999
2 43867   0.0329 112.4058 0000447  16.7453 201.8351  1.00271339 26707
